{"type": "FeatureCollection", "features": [ {"type": "Feature", "properties": {"norad_id": 37550, "name": "IRIDIUM 33 DEB", "group": "iridium-33-debris", "lat": -26.27909525319979, "lon": -155.20143304912415, "alt_km": 676.3841140019913, "timestamp": "2025-12-14T16:47:41.068455+00:00", "meta": {"OBJECT_NAME": "IRIDIUM 33 DEB", "OBJECT_ID": "1997-051XK", "EPOCH": "2025-12-13T08:45:33.524640", "MEAN_MOTION": 14.67228096, "ECCENTRICITY": 0.00055701, "INCLINATION": 86.378, "RA_OF_ASC_NODE": 23.5976, "ARG_OF_PERICENTER": 109.645, "MEAN_ANOMALY": 250.5366, "EPHEMERIS_TYPE": 0, "CLASSIFICATION_TYPE": "U", "NORAD_CAT_ID": 37550, "ELEMENT_SET_NO": 999, "REV_AT_EPOCH": 86342, "BSTAR": 0.0021536322, "MEAN_MOTION_DOT": 0.00012161, "MEAN_MOTION_DDOT": 0}, "tle": {"line1": "1 37550U 97051XK  25347.36497135  .00012161  00000+0  21536-2 0  9990", "line2": "2 37550  86.3780  23.5976 0005570 109.6450 250.5366 14.67228096863423"}}, "geometry": {"type": "Point", "coordinates": [-155.20143304912415, -26.27909525319979]}}, {"type": "Feature", "properties": {"norad_id": 37562, "name": "IRIDIUM 33 DEB", "group": "iridium-33-debris", "lat": -21.2344266478123, "lon": 41.33395190510686, "alt_km": 719.981323193635, "timestamp": "2025-12-14T16:47:41.068467+00:00", "meta": {"OBJECT_NAME": "IRIDIUM 33 DEB", "OBJECT_ID": "1997-051XX", "EPOCH": "2025-12-12T22:34:29.180064", "MEAN_MOTION": 14.56479735, "ECCENTRICITY": 0.00267072, "INCLINATION": 86.3742, "RA_OF_ASC_NODE": 43.5127, "ARG_OF_PERICENTER": 107.2211, "MEAN_ANOMALY": 13.868, "EPHEMERIS_TYPE": 0, "CLASSIFICATION_TYPE": "U", "NORAD_CAT_ID": 37562, "ELEMENT_SET_NO": 999, "REV_AT_EPOCH": 86331, "BSTAR": 0.0015437368, "MEAN_MOTION_DOT": 6.916e-05, "MEAN_MOTION_DDOT": 0}, "tle": {"line1": "1 37562U 97051XX  25346.94061551  .00006916  00000+0  15437-2 0  9999", "line2": "2 37562  86.3742  43.5127 0026707 107.2211  13.8680 14.56479735863311"}}, "geometry": {"type": "Point", "coordinates": [41.33395190510686, -21.2344266478123]}}, {"type": "Feature", "properties": {"norad_id": 37565, "name": "IRIDIUM 33 DEB", "group": "iridium-33-debris", "lat": 83.67804172597819, "lon": 43.910986857718584, "alt_km": 702.4620940978484, "timestamp": "2025-12-14T16:47:41.068480+00:00", "meta": {"OBJECT_NAME": "IRIDIUM 33 DEB", "OBJECT_ID": "1997-051YA", "EPOCH": "2025-12-13T08:58:15.147552", "MEAN_MOTION": 14.51522356, "ECCENTRICITY": 0.00152671, "INCLINATION": 86.3495, "RA_OF_ASC_NODE": 9.3016, "ARG_OF_PERICENTER": 82.6927, "MEAN_ANOMALY": 277.6013, "EPHEMERIS_TYPE": 0, "CLASSIFICATION_TYPE": "U", "NORAD_CAT_ID": 37565, "ELEMENT_SET_NO": 999, "REV_AT_EPOCH": 65846, "BSTAR": 0.0008528006, "MEAN_MOTION_DOT": 3.434e-05, "MEAN_MOTION_DDOT": 0}, "tle": {"line1": "1 37565U 97051YA  25347.37378643  .00003434  00000+0  85280-3 0  9999", "line2": "2 37565  86.3495   9.3016 0015267  82.6927 277.6013 14.51522356658466"}}, "geometry": {"type": "Point", "coordinates": [43.910986857718584, 83.67804172597819]}}, {"type": "Feature", "properties": {"norad_id": 38017, "name": "IRIDIUM 33 DEB", "group": "iridium-33-debris", "lat": 23.573909872420735, "lon": -16.225550636970556, "alt_km": 694.8474374796942, "timestamp": "2025-12-14T16:47:41.068493+00:00", "meta": {"OBJECT_NAME": "IRIDIUM 33 DEB", "OBJECT_ID": "1997-051YD", "EPOCH": "2025-12-09T11:46:33.949344", "MEAN_MOTION": 14.48798991, "ECCENTRICITY": 0.0092342, "INCLINATION": 86.3421, "RA_OF_ASC_NODE": 167.6378, "ARG_OF_PERICENTER": 113.8595, "MEAN_ANOMALY": 247.2321, "EPHEMERIS_TYPE": 0, "CLASSIFICATION_TYPE": "U", "NORAD_CAT_ID": 38017, "ELEMENT_SET_NO": 999, "REV_AT_EPOCH": 61355, "BSTAR": 0.0067532519, "MEAN_MOTION_DOT": 0.00027013, "MEAN_MOTION_DDOT": 0}, "tle": {"line1": "1 38017U 97051YD  25343.49067071  .00027013  00000+0  67533-2 0  9990", "line2": "2 38017  86.3421 167.6378 0092342 113.8595 247.2321 14.48798991613556"}}, "geometry": {"type": "Point", "coordinates": [-16.225550636970556, 23.573909872420735]}}, {"type": "Feature", "properties": {"norad_id": 38022, "name": "IRIDIUM 33 DEB", "group": "iridium-33-debris", "lat": -62.29823345746679, "lon": -157.27611342622902, "alt_km": 793.0770044447372, "timestamp": "2025-12-14T16:47:41.068503+00:00", "meta": {"OBJECT_NAME": "IRIDIUM 33 DEB", "OBJECT_ID": "1997-051YJ", "EPOCH": "2025-12-12T08:41:14.041248", "MEAN_MOTION": 14.41246239, "ECCENTRICITY": 0.00465932, "INCLINATION": 86.2691, "RA_OF_ASC_NODE": 16.6083, "ARG_OF_PERICENTER": 51.6762, "MEAN_ANOMALY": 308.8611, "EPHEMERIS_TYPE": 0, "CLASSIFICATION_TYPE": "U", "NORAD_CAT_ID": 38022, "ELEMENT_SET_NO": 999, "REV_AT_EPOCH": 69188, "BSTAR": 0.001535131, "MEAN_MOTION_DOT": 5.042e-05, "MEAN_MOTION_DDOT": 0}, "tle": {"line1": "1 38022U 97051YJ  25346.36196807  .00005042  00000+0  15351-2 0  9994", "line2": "2 38022  86.2691  16.6083 0046593  51.6762 308.8611 14.41246239691882"}}, "geometry": {"type": "Point", "coordinates": [-157.27611342622902, -62.29823345746679]}}, {"type": "Feature", "properties": {"norad_id": 38028, "name": "IRIDIUM 33 DEB", "group": "iridium-33-debris", "lat": 60.38973064295773, "lon": 5.907002191615388, "alt_km": 719.449486790174, "timestamp": "2025-12-14T16:47:41.068513+00:00", "meta": {"OBJECT_NAME": "IRIDIUM 33 DEB", "OBJECT_ID": "1997-051YQ", "EPOCH": "2025-12-13T07:18:12.945600", "MEAN_MOTION": 14.4618008, "ECCENTRICITY": 0.00302038, "INCLINATION": 86.3305, "RA_OF_ASC_NODE": 0.0289, "ARG_OF_PERICENTER": 118.4875, "MEAN_ANOMALY": 241.9376, "EPHEMERIS_TYPE": 0, "CLASSIFICATION_TYPE": "U", "NORAD_CAT_ID": 38028, "ELEMENT_SET_NO": 999, "REV_AT_EPOCH": 65503, "BSTAR": 0.00033695006, "MEAN_MOTION_DOT": 1.231e-05, "MEAN_MOTION_DDOT": 0}, "tle": {"line1": "1 38028U 97051YQ  25347.30431650  .00001231  00000+0  33695-3 0  9991", "line2": "2 38028  86.3305   0.0289 0030203 118.4875 241.9376 14.46180080655032"}}, "geometry": {"type": "Point", "coordinates": [5.907002191615388, 60.38973064295773]}}, {"type": "Feature", "properties": {"norad_id": 38228, "name": "IRIDIUM 33 DEB", "group": "iridium-33-debris", "lat": -42.17194254697973, "lon": -128.99813674037878, "alt_km": 771.5855128588646, "timestamp": "2025-12-14T16:47:41.068523+00:00", "meta": {"OBJECT_NAME": "IRIDIUM 33 DEB", "OBJECT_ID": "1997-051ZC", "EPOCH": "2025-12-13T11:13:27.811200", "MEAN_MOTION": 14.27268948, "ECCENTRICITY": 0.00643391, "INCLINATION": 86.2949, "RA_OF_ASC_NODE": 48.1604, "ARG_OF_PERICENTER": 187.0426, "MEAN_ANOMALY": 187.919, "EPHEMERIS_TYPE": 0, "CLASSIFICATION_TYPE": "U", "NORAD_CAT_ID": 38228, "ELEMENT_SET_NO": 999, "REV_AT_EPOCH": 84792, "BSTAR": 0.00045930818, "MEAN_MOTION_DOT": 1.167e-05, "MEAN_MOTION_DDOT": 0}, "tle": {"line1": "1 38228U 97051ZC  25347.46768300  .00001167  00000+0  45931-3 0  9999", "line2": "2 38228  86.2949  48.1604 0064339 187.0426 187.9190 14.27268948847925"}}, "geometry": {"type": "Point", "coordinates": [-128.99813674037878, -42.17194254697973]}}, {"type": "Feature", "properties": {"norad_id": 38241, "name": "IRIDIUM 33 DEB", "group": "iridium-33-debris", "lat": -22.284336569883354, "lon": -11.775121914885812, "alt_km": 715.1634988262576, "timestamp": "2025-12-14T16:47:41.068533+00:00", "meta": {"OBJECT_NAME": "IRIDIUM 33 DEB", "OBJECT_ID": "1997-051ZR", "EPOCH": "2025-12-13T06:13:58.226016", "MEAN_MOTION": 14.54873749, "ECCENTRICITY": 0.00056326, "INCLINATION": 86.3232, "RA_OF_ASC_NODE": 350.3699, "ARG_OF_PERICENTER": 72.2147, "MEAN_ANOMALY": 287.9674, "EPHEMERIS_TYPE": 0, "CLASSIFICATION_TYPE": "U", "NORAD_CAT_ID": 38241, "ELEMENT_SET_NO": 999, "REV_AT_EPOCH": 60208, "BSTAR": 0.0012492013, "MEAN_MOTION_DOT": 5.385e-05, "MEAN_MOTION_DDOT": 0}, "tle": {"line1": "1 38241U 97051ZR  25347.25970169  .00005385  00000+0  12492-2 0  9990", "line2": "2 38241  86.3232 350.3699 0005632  72.2147 287.9674 14.54873749602089"}}, "geometry": {"type": "Point", "coordinates": [-11.775121914885812, -22.284336569883354]}}, {"type": "Feature", "properties": {"norad_id": 38474, "name": "IRIDIUM 33 DEB", "group": "iridium-33-debris", "lat": 80.89026617930033, "lon": 32.701760964701506, "alt_km": 695.9457006521161, "timestamp": "2025-12-14T16:47:41.068543+00:00", "meta": {"OBJECT_NAME": "IRIDIUM 33 DEB", "OBJECT_ID": "1997-051AAB", "EPOCH": "2025-12-13T08:58:04.646496", "MEAN_MOTION": 14.5069505, "ECCENTRICITY": 0.00282612, "INCLINATION": 86.3454, "RA_OF_ASC_NODE": 9.789, "ARG_OF_PERICENTER": 86.1077, "MEAN_ANOMALY": 274.3358, "EPHEMERIS_TYPE": 0, "CLASSIFICATION_TYPE": "U", "NORAD_CAT_ID": 38474, "ELEMENT_SET_NO": 999, "REV_AT_EPOCH": 65327, "BSTAR": 0.00084561127, "MEAN_MOTION_DOT": 3.359e-05, "MEAN_MOTION_DDOT": 0}, "tle": {"line1": "1 38474U 97051AAB 25347.37366489  .00003359  00000+0  84561-3 0  9991", "line2": "2 38474  86.3454   9.7890 0028261  86.1077 274.3358 14.50695050653279"}}, "geometry": {"type": "Point", "coordinates": [32.701760964701506, 80.89026617930033]}}, {"type": "Feature", "properties": {"norad_id": 39777, "name": "IRIDIUM 33 DEB", "group": "iridium-33-debris", "lat": 11.141892144661362, "lon": -6.7052941962767525, "alt_km": 664.4451048158344, "timestamp": "2025-12-14T16:47:41.068554+00:00", "meta": {"OBJECT_NAME": "IRIDIUM 33 DEB", "OBJECT_ID": "1997-051AAJ", "EPOCH": "2025-12-12T06:18:37.183104", "MEAN_MOTION": 14.5641282, "ECCENTRICITY": 0.00598335, "INCLINATION": 85.9631, "RA_OF_ASC_NODE": 175.2743, "ARG_OF_PERICENTER": 188.1374, "MEAN_ANOMALY": 171.887, "EPHEMERIS_TYPE": 0, "CLASSIFICATION_TYPE": "U", "NORAD_CAT_ID": 39777, "ELEMENT_SET_NO": 999, "REV_AT_EPOCH": 60178, "BSTAR": 0.0041697031, "MEAN_MOTION_DOT": 0.00019016, "MEAN_MOTION_DDOT": 0}, "tle": {"line1": "1 39777U 97051AAJ 25346.26293036  .00019016  00000+0  41697-2 0  9991", "line2": "2 39777  85.9631 175.2743 0059833 188.1374 171.8870 14.56412820601783"}}, "geometry": {"type": "Point", "coordinates": [-6.7052941962767525, 11.141892144661362]}}]}